{
  "type": "FeatureCollection",
  "features": [
    {
      "type": "Feature",
      "properties": {
        "norad_id": 67061,
        "name": "HULIANWANG DIGUI-121",
        "group": "last-30-days",
        "lat": 39.2282099820624,
        "lon": 25.41629864022341,
        "alt_km": 808.4071446779917,
        "timestamp": "2025-12-19T20:42:58.816334+00:00",
        "meta_object_name": "HULIANWANG DIGUI-121",
        "meta_object_id": "2025-295C",
        "meta_epoch": "2025-12-15T17:12:22.292352",
        "meta_mean_motion": 14.25729079,
        "meta_eccentricity": 0.00132682,
        "meta_inclination": 50.0012,
        "meta_ra_of_asc_node": 359.6606,
        "meta_arg_of_pericenter": 256.3366,
        "meta_mean_anomaly": 103.6071,
        "meta_ephemeris_type": 0,
        "meta_classification_type": "U",
        "meta_norad_cat_id": 67061,
        "meta_element_set_no": 999,
        "meta_rev_at_epoch": 54,
        "meta_bstar": 6.6638352e-05,
        "meta_mean_motion_dot": -1e-08,
        "meta_mean_motion_ddot": 0,
        "tle_line1": "1 67061U 25295C   25349.71692468 -.00000001  00000+0  66638-4 0  9993",
        "tle_line2": "2 67061  50.0012 359.6606 0013268 256.3366 103.6071 14.25729079   549"
      },
      "geometry": {
        "type": "Point",
        "coordinates": [
          25.41629864022341,
          39.2282099820624
        ]
      }
    },
    {
      "type": "Feature",
      "properties": {
        "norad_id": 67062,
        "name": "HULIANWANG DIGUI-122",
        "group": "last-30-days",
        "lat": 39.73509589613537,
        "lon": 26.410464003472814,
        "alt_km": 807.5138003295342,
        "timestamp": "2025-12-19T20:42:58.816346+00:00",
        "meta_object_name": "HULIANWANG DIGUI-122",
        "meta_object_id": "2025-295D",
        "meta_epoch": "2025-12-19T06:59:40.435008",
        "meta_mean_motion": 14.25755091,
        "meta_eccentricity": 0.00131639,
        "meta_inclination": 50.0054,
        "meta_ra_of_asc_node": 344.5736,
        "meta_arg_of_pericenter": 276.2751,
        "meta_mean_anomaly": 83.6663,
        "meta_ephemeris_type": 0,
        "meta_classification_type": "U",
        "meta_norad_cat_id": 67062,
        "meta_element_set_no": 999,
        "meta_rev_at_epoch": 105,
        "meta_bstar": 0.00012634679,
        "meta_mean_motion_dot": 1.42e-06,
        "meta_mean_motion_ddot": 0,
        "tle_line1": "1 67062U 25295D   25353.29144022  .00000142  00000+0  12635-3 0  9992",
        "tle_line2": "2 67062  50.0054 344.5736 0013163 276.2751  83.6663 14.25755091  1050"
      },
      "geometry": {
        "type": "Point",
        "coordinates": [
          26.410464003472814,
          39.73509589613537
        ]
      }
    },
    {
      "type": "Feature",
      "properties": {
        "norad_id": 67063,
        "name": "HULIANWANG DIGUI-123",
        "group": "last-30-days",
        "lat": 41.719869682534544,
        "lon": 30.6101746719743,
        "alt_km": 806.8505274171321,
        "timestamp": "2025-12-19T20:42:58.816357+00:00",
        "meta_object_name": "HULIANWANG DIGUI-123",
        "meta_object_id": "2025-295E",
        "meta_epoch": "2025-12-19T06:58:41.889504",
        "meta_mean_motion": 14.25887937,
        "meta_eccentricity": 0.00124788,
        "meta_inclination": 50.0061,
        "meta_ra_of_asc_node": 344.5724,
        "meta_arg_of_pericenter": 275.4776,
        "meta_mean_anomaly": 84.4715,
        "meta_ephemeris_type": 0,
        "meta_classification_type": "U",
        "meta_norad_cat_id": 67063,
        "meta_element_set_no": 999,
        "meta_rev_at_epoch": 105,
        "meta_bstar": 0.00012851761,
        "meta_mean_motion_dot": 1.48e-06,
        "meta_mean_motion_ddot": 0,
        "tle_line1": "1 67063U 25295E   25353.29076261  .00000148  00000+0  12852-3 0  9999",
        "tle_line2": "2 67063  50.0061 344.5724 0012478 275.4776  84.4715 14.25887937  1054"
      },
      "geometry": {
        "type": "Point",
        "coordinates": [
          30.6101746719743,
          41.719869682534544
        ]
      }
    },
    {
      "type": "Feature",
      "properties": {
        "norad_id": 67064,
        "name": "HULIANWANG DIGUI-124",
        "group": "last-30-days",
        "lat": 42.560341058560084,
        "lon": 32.57197174350978,
        "alt_km": 806.8928307081105,
        "timestamp": "2025-12-19T20:42:58.816367+00:00",
        "meta_object_name": "HULIANWANG DIGUI-124",
        "meta_object_id": "2025-295F",
        "meta_epoch": "2025-12-18T00:41:45.177504",
        "meta_mean_motion": 14.25947801,
        "meta_eccentricity": 0.0012069,
        "meta_inclination": 50.0037,
        "meta_ra_of_asc_node": 349.8867,
        "meta_arg_of_pericenter": 265.6344,
        "meta_mean_anomaly": 94.3191,
        "meta_ephemeris_type": 0,
        "meta_classification_type": "U",
        "meta_norad_cat_id": 67064,
        "meta_element_set_no": 999,
        "meta_rev_at_epoch": 87,
        "meta_bstar": -0.00021481981,
        "meta_mean_motion_dot": -6.76e-06,
        "meta_mean_motion_ddot": 0,
        "tle_line1": "1 67064U 25295F   25352.02899511 -.00000676  00000+0 -21482-3 0  9998",
        "tle_line2": "2 67064  50.0037 349.8867 0012069 265.6344  94.3191 14.25947801   876"
      },
      "geometry": {
        "type": "Point",
        "coordinates": [
          32.57197174350978,
          42.560341058560084
        ]
      }
    },
    {
      "type": "Feature",
      "properties": {
        "norad_id": 67065,
        "name": "HULIANWANG DIGUI-125",
        "group": "last-30-days",
        "lat": 42.63392931472134,
        "lon": 32.75716483268162,
        "alt_km": 806.4872828353882,
        "timestamp": "2025-12-19T20:42:58.816377+00:00",
        "meta_object_name": "HULIANWANG DIGUI-125",
        "meta_object_id": "2025-295G",
        "meta_epoch": "2025-12-19T06:58:13.139040",
        "meta_mean_motion": 14.25953582,
        "meta_eccentricity": 0.00122757,
        "meta_inclination": 50.0011,
        "meta_ra_of_asc_node": 344.5559,
        "meta_arg_of_pericenter": 276.1084,
        "meta_mean_anomaly": 83.8431,
        "meta_ephemeris_type": 0,
        "meta_classification_type": "U",
        "meta_norad_cat_id": 67065,
        "meta_element_set_no": 999,
        "meta_rev_at_epoch": 105,
        "meta_bstar": 0.00012070897,
        "meta_mean_motion_dot": 1.3e-06,
        "meta_mean_motion_ddot": 0,
        "tle_line1": "1 67065U 25295G   25353.29042985  .00000130  00000+0  12071-3 0  9991",
        "tle_line2": "2 67065  50.0011 344.5559 0012275 276.1084  83.8431 14.25953582  1050"
      },
      "geometry": {
        "type": "Point",
        "coordinates": [
          32.75716483268162,
          42.63392931472134
        ]
      }
    },
    {
      "type": "Feature",
      "properties": {
        "norad_id": 67066,
        "name": "HULIANWANG DIGUI-126",
        "group": "last-30-days",
        "lat": 44.532986684503776,
        "lon": 37.818979093148165,
        "alt_km": 805.7758093995735,
        "timestamp": "2025-12-19T20:42:58.816391+00:00",
        "meta_object_name": "HULIANWANG DIGUI-126",
        "meta_object_id": "2025-295H",
        "meta_epoch": "2025-12-19T06:57:08.510112",
        "meta_mean_motion": 14.26096542,
        "meta_eccentricity": 0.00114375,
        "meta_inclination": 50.0014,
        "meta_ra_of_asc_node": 344.5512,
        "meta_arg_of_pericenter": 273.2525,
        "meta_mean_anomaly": 86.708,
        "meta_ephemeris_type": 0,
        "meta_classification_type": "U",
        "meta_norad_cat_id": 67066,
        "meta_element_set_no": 999,
        "meta_rev_at_epoch": 105,
        "meta_bstar": 0.00011915752,
        "meta_mean_motion_dot": 1.27e-06,
        "meta_mean_motion_ddot": 0,
        "tle_line1": "1 67066U 25295H   25353.28968183  .00000127  00000+0  11916-3 0  9991",
        "tle_line2": "2 67066  50.0014 344.5512 0011437 273.2525  86.7080 14.26096542  1057"
      },
      "geometry": {
        "type": "Point",
        "coordinates": [
          37.818979093148165,
          44.532986684503776
        ]
      }
    },
    {
      "type": "Feature",
      "properties": {
        "norad_id": 67067,
        "name": "HULIANWANG DIGUI-127",
        "group": "last-30-days",
        "lat": 46.09681200516937,
        "lon": 42.84827365836502,
        "alt_km": 804.6696912032476,
        "timestamp": "2025-12-19T20:42:58.816402+00:00",
        "meta_object_name": "HULIANWANG DIGUI-127",
        "meta_object_id": "2025-295J",
        "meta_epoch": "2025-12-19T00:12:34.067232",
        "meta_mean_motion": 14.26249922,
        "meta_eccentricity": 0.00108646,
        "meta_inclination": 50.0053,
        "meta_ra_of_asc_node": 345.7393,
        "meta_arg_of_pericenter": 276.2667,
        "meta_mean_anomaly": 83.701,
        "meta_ephemeris_type": 0,
        "meta_classification_type": "U",
        "meta_norad_cat_id": 67067,
        "meta_element_set_no": 999,
        "meta_rev_at_epoch": 101,
        "meta_bstar": -0.00028493863,
        "meta_mean_motion_dot": -8.49e-06,
        "meta_mean_motion_ddot": 0,
        "tle_line1": "1 67067U 25295J   25353.00872763 -.00000849  00000+0 -28494-3 0  9992",
        "tle_line2": "2 67067  50.0053 345.7393 0010864 276.2667  83.7010 14.26249922  1012"
      },
      "geometry": {
        "type": "Point",
        "coordinates": [
          42.84827365836502,
          46.09681200516937
        ]
      }
    }
  ]
}